[{"OBJECT_NAME":"TIANMU-1 10","OBJECT_ID":"2023-101D","EPOCH":"2026-03-09T23:06:46.939392","MEAN_MOTION":15.2921896,"ECCENTRICITY":0.00069292,"INCLINATION":97.2749,"RA_OF_ASC_NODE":122.1027,"ARG_OF_PERICENTER":133.6162,"MEAN_ANOMALY":226.5654,"EPHEMERIS_TYPE":0,"CLASSIFICATION_TYPE":"U","NORAD_CAT_ID":57402,"ELEMENT_SET_NO":999,"REV_AT_EPOCH":14647,"BSTAR":0.00032238884,"MEAN_MOTION_DOT":9.075e-5,"MEAN_MOTION_DDOT":0},{"OBJECT_NAME":"STARLINK-33873","OBJECT_ID":"2025-083X","EPOCH":"2026-03-09T05:24:53.030592","MEAN_MOTION":15.27597423,"ECCENTRICITY":0.00022042,"INCLINATION":43.0043,"RA_OF_ASC_NODE":8.0199,"ARG_OF_PERICENTER":269.7434,"MEAN_ANOMALY":90.3165,"EPHEMERIS_TYPE":0,"CLASSIFICATION_TYPE":"U","NORAD_CAT_ID":63655,"ELEMENT_SET_NO":999,"REV_AT_EPOCH":5002,"BSTAR":0.0007984622,"MEAN_MOTION_DOT":0.00021787,"MEAN_MOTION_DDOT":0}]
